CSS (TIANHE)            
1 48274U 21035A   23274.89011624  .00049133  00000+0  51756-3 0  9991
2 48274  41.4734 226.5034 0009171 165.4343 194.6762 15.63380641138516
